H1 CPF 01  gfz 2022 05 20 00  6401 tandemx   
H2 1003001  6202 36605    2022 05 20 00 59 42 2022 05 25 00 00 42   120 1 1  0 0 0
H9
10 0 59721  29502.000000  0   -5213931.205   2777450.620  -3552282.147
10 0 59721  29622.000000  0   -5484796.997   3140194.711  -2750333.146
10 0 59721  29742.000000  0   -5654147.110   3452049.159  -1900097.130
10 0 59721  29862.000000  0   -5719889.087   3705725.226  -1016470.078
10 0 59721  29982.000000  0   -5681867.400   3894929.452   -114966.580
10 0 59721  30102.000000  0   -5541856.111   4014514.292    788558.145
10 0 59721  30222.000000  0   -5303511.570   4060606.504   1678196.599
10 0 59721  30342.000000  0   -4972285.537   4030709.380   2538278.221
10 0 59721  30462.000000  0   -4555303.200   3923777.617   3353653.207
10 0 59721  30582.000000  0   -4061208.556   3740262.600   4109966.969
10 0 59721  30702.000000  0   -3499980.753   3482125.552   4793917.055
10 0 59721  30822.000000  0   -2882727.223   3152820.816   5393488.682
10 0 59721  30942.000000  0   -2221457.412   2757248.429   5898164.443
10 0 59721  31062.000000  0   -1528843.798   2301677.920   6299105.091
10 0 59721  31182.000000  0    -817974.216   1793644.648   6589298.143
10 0 59721  31302.000000  0    -102103.557   1241822.139   6763672.887
10 0 59721  31422.000000  0     605593.084    655872.149   6819184.330
10 0 59721  31542.000000  0    1292262.378     46275.219   6754862.546
10 0 59721  31662.000000  0    1945605.046   -575855.976   6571828.926
10 0 59721  31782.000000  0    2554095.646  -1198978.836   6273278.464
10 0 59721  31902.000000  0    3107186.761  -1811334.076   5864428.223
10 0 59721  32022.000000  0    3595494.989  -2401168.113   5352431.721
10 0 59721  32142.000000  0    4010964.100  -2956959.519   4746259.289
10 0 59721  32262.000000  0    4347002.963  -3467646.566   4056546.654
10 0 59721  32382.000000  0    4598595.533  -3922851.223   3295412.176
10 0 59721  32502.000000  0    4762380.679  -4313094.315   2476245.249
10 0 59721  32622.000000  0    4836699.012  -4629996.098   1613468.197
10 0 59721  32742.000000  0    4821604.476  -4866457.441    722277.562
10 0 59721  32862.000000  0    4718841.059  -5016817.903   -181630.426
10 0 59721  32982.000000  0    4531785.169  -5076985.382  -1082344.360
10 0 59721  33102.000000  0    4265355.660  -5044534.404  -1964027.048
10 0 59721  33222.000000  0    3925892.059  -4918770.229  -2811201.756
10 0 59721  33342.000000  0    3521005.885  -4700757.599  -3609029.460
10 0 59721  33462.000000  0    3059408.804  -4393314.207  -4343570.694
10 0 59721  33582.000000  0    2550722.732  -4000969.519  -5002028.216
10 0 59721  33702.000000  0    2005275.755  -3529889.408  -5572963.958
10 0 59721  33822.000000  0    1433891.201  -2987771.812  -6046487.418
10 0 59721  33942.000000  0     847673.240  -2383716.064  -6414416.767
10 0 59721  34062.000000  0     257792.110  -1728066.195  -6670409.952
10 0 59721  34182.000000  0    -324725.660  -1032231.799  -6810063.117
10 0 59721  34302.000000  0    -889198.050   -308490.820  -6830977.345
10 0 59721  34422.000000  0   -1425478.310    430222.683  -6732794.809
10 0 59721  34542.000000  0   -1924133.199   1170543.526  -6517203.640
10 0 59721  34662.000000  0   -2376604.832   1898911.121  -6187912.035
10 0 59721  34782.000000  0   -2775355.415   2601811.635  -5750591.941
10 0 59721  34902.000000  0   -3113993.201   3266025.381  -5212792.144
10 0 59721  35022.000000  0   -3387377.607   3878874.956  -4583820.058
10 0 59721  35142.000000  0   -3591701.528   4428469.773  -3874591.281
10 0 59721  35262.000000  0   -3724546.940   4903940.879  -3097448.437
10 0 59721  35382.000000  0   -3784913.280   5295661.087  -2265953.807
10 0 59721  35502.000000  0   -3773219.598   5595447.191  -1394657.337
10 0 59721  35622.000000  0   -3691277.861   5796739.111   -498841.834
10 0 59721  35742.000000  0   -3542236.807   5894747.861    405749.798
10 0 59721  35862.000000  0   -3330500.003   5886570.082   1303197.745
10 0 59721  35982.000000  0   -3061616.278   5771265.821   2177695.877
10 0 59721  36102.000000  0   -2742145.541   5549894.788   3013840.595
10 0 59721  36222.000000  0   -2379505.474   5225510.828   3796909.373
10 0 59721  36342.000000  0   -1981803.330   4803117.352   4513124.727
10 0 59721  36462.000000  0   -1557656.808   4289584.296   5149898.992
10 0 59721  36582.000000  0   -1116007.674   3693528.889   5696055.839
10 0 59721  36702.000000  0    -665933.443   3025162.403   6142022.935
10 0 59721  36822.000000  0    -216461.551   2296107.667   6479994.270
10 0 59721  36942.000000  0     223610.393   1519192.259   6704060.477
10 0 59721  37062.000000  0     645885.979    708219.457   6810307.129
10 0 59721  37182.000000  0    1042529.187   -122278.060   6796877.758
10 0 59721  37302.000000  0    1406408.787   -957297.520   6664005.044
10 0 59721  37422.000000  0    1731226.368  -1781636.906   6414007.533
10 0 59721  37542.000000  0    2011625.800  -2580171.208   6051252.241
10 0 59721  37662.000000  0    2243282.597  -3338131.444   5582083.402
10 0 59721  37782.000000  0    2422971.588  -4041380.742   5014716.625
10 0 59721  37902.000000  0    2548611.213  -4676681.953   4359100.548
10 0 59721  38022.000000  0    2619285.351  -5231953.428   3626747.402
10 0 59721  38142.000000  0    2635240.581  -5696506.801   2830532.919
10 0 59721  38262.000000  0    2597858.097  -6061261.655   1984469.533
10 0 59721  38382.000000  0    2509601.436  -6318929.436   1103455.767
10 0 59721  38502.000000  0    2373941.850  -6464163.830    203009.462
10 0 59721  38622.000000  0    2195262.921  -6493675.769   -701012.916
10 0 59721  38742.000000  0    1978745.530  -6406305.985  -1592706.208
10 0 59721  38862.000000  0    1730235.503  -6203053.133  -2456404.933
10 0 59721  38982.000000  0    1456099.071  -5887059.919  -3276966.052
10 0 59721  39102.000000  0    1163069.759  -5463552.457  -4040038.032
10 0 59721  39222.000000  0     858092.559  -4939742.259  -4732310.888
10 0 59721  39342.000000  0     548166.858  -4324691.221  -5341744.088
10 0 59721  39462.000000  0     240192.643  -3629143.975  -5857768.479
10 0 59721  39582.000000  0     -59176.797  -2865331.056  -6271459.581
10 0 59721  39702.000000  0    -343672.569  -2046748.181  -6575680.319
10 0 59721  39822.000000  0    -607536.017  -1187916.052  -6765192.724
10 0 59721  39942.000000  0    -845630.394   -304124.845  -6836739.106
10 0 59721  40062.000000  0   -1053536.952    588833.813  -6789091.384
10 0 59721  40182.000000  0   -1227634.614   1474941.594  -6623068.932
10 0 59721  40302.000000  0   -1365161.612   2338233.400  -6341525.820
10 0 59721  40422.000000  0   -1464258.486   3163077.878  -5949308.119
10 0 59721  40542.000000  0   -1523992.586   3934457.410  -5453180.097
10 0 59721  40662.000000  0   -1544362.573   4638240.851  -4861718.539
10 0 59721  40782.000000  0   -1526283.736   5261446.439  -4185176.220
10 0 59721  40902.000000  0   -1471553.467   5792488.330  -3435313.625
10 0 59721  41022.000000  0   -1382796.954   6221400.748  -2625202.173
10 0 59721  41142.000000  0   -1263394.630   6540036.399  -1769002.098
10 0 59721  41262.000000  0   -1117392.376   6742233.354   -881715.732
10 0 59721  41382.000000  0    -949396.609   6823944.729     21076.941
10 0 59721  41502.000000  0    -764456.156   6783329.754    923497.376
10 0 59721  41622.000000  0    -567934.077   6620800.105   1809657.716
10 0 59721  41742.000000  0    -365372.936   6339017.732   2663950.942
10 0 59721  41862.000000  0    -162357.249   5942847.352   3471332.761
10 0 59721  41982.000000  0      35623.249   5439267.266   4217591.617
10 0 59721  42102.000000  0     223306.399   4837240.423   4889605.422
10 0 59721  42222.000000  0     395784.453   4147539.990   5475574.222
10 0 59721  42342.000000  0     548620.310   3382547.920   5965221.586
10 0 59721  42462.000000  0     677950.995   2556025.004   6349972.329
10 0 59721  42582.000000  0     780575.756   1682856.323   6623096.573
10 0 59721  42702.000000  0     854028.167    778778.891   6779821.729
10 0 59721  42822.000000  0     896630.537   -139903.666   6817409.985
10 0 59721  42942.000000  0     907529.851  -1056613.880   6735203.791
10 0 59721  43062.000000  0     886714.448  -1954799.649   6534637.575
10 0 59721  43182.000000  0     835011.236  -2818233.012   6219214.749
10 0 59721  43302.000000  0     754063.336  -3631305.529   5794449.997
10 0 59721  43422.000000  0     646288.461  -4379312.079   5267775.926
10 0 59721  43542.000000  0     514820.404  -5048719.733   4648419.379
10 0 59721  43662.000000  0     363433.411  -5627419.938   3947246.946
10 0 59721  43782.000000  0     196449.913  -6104958.181   3176578.050
10 0 59721  43902.000000  0      18634.185  -6472733.451   2349969.153
10 0 59721  44022.000000  0    -164925.772  -6724162.207   1481972.947
10 0 59721  44142.000000  0    -348944.945  -6854805.174    587878.728
10 0 59721  44262.000000  0    -528074.206  -6862452.590   -316565.670
10 0 59721  44382.000000  0    -697035.234  -6747161.956  -1215441.452
10 0 59721  44502.000000  0    -850753.434  -6511249.420  -2092947.751
10 0 59721  44622.000000  0    -984486.146  -6159237.119  -2933685.981
10 0 59721  44742.000000  0   -1093943.271  -5697757.491  -3722935.224
10 0 59721  44862.000000  0   -1175396.995  -5135416.205  -4446912.198
10 0 59721  44982.000000  0   -1225777.677  -4482618.396  -5093009.230
10 0 59721  45102.000000  0   -1242754.335  -3751364.796  -5650007.135
10 0 59721  45222.000000  0   -1224797.924  -2955022.241  -6108261.056
10 0 59721  45342.000000  0   -1171226.399  -2108073.182  -6459856.938
10 0 59721  45462.000000  0   -1082231.140  -1225849.648  -6698736.354
10 0 59721  45582.000000  0    -958884.818   -324257.491  -6820790.222
10 0 59721  45702.000000  0    -803130.228    580505.948  -6823921.528
10 0 59721  45822.000000  0    -617749.696   1472235.458  -6708076.471
10 0 59721  45942.000000  0    -406316.864   2335000.403  -6475245.221
99
